
STARLINK-4052
1 53171U 22083AR  26169.90786403 -.00000184  00000+0  65821-5 0  9993
2 53171  53.1608  39.3846 0001883 103.5057 256.6144 15.08835929217059

STARLINK-4095
1 53170U 22083AQ  26169.99942960  .00000201  00000+0  30703-4 0  9992
2 53170  53.1606  64.1697 0001252  90.6353 269.4781 15.08831742216722

STARLINK-4205
1 53174U 22083AU  26170.33335648  .00053824  00000+0  24175-2 0  9998
2 53174  53.1599  77.3542 0000214 167.4220 172.8585 15.20663871  5810

STARLINK-4257
1 53184U 22083BE  26169.88668458 -.00000074  00000+0  13454-4 0  9995
2 53184  53.1596  29.3059 0001300  89.7060 270.4080 15.08833761217209

STARLINK-4258
1 53180U 22083BA  26169.91616286 -.00000212  00000+0  47567-5 0  9994
2 53180  53.1604  29.4606 0001233  88.2605 271.8527 15.08834083217195

STARLINK-4268
1 53183U 22083BD  26170.00954843  .00000050  00000+0  21249-4 0  9990
2 53183  53.1610  34.0845 0001235  89.8315 270.2818 15.08832856217135

STARLINK-4276
1 53179U 22083AZ  26169.89036552 -.00000026  00000+0  16449-4 0  9998
2 53179  53.1594  29.3054 0001265  88.4653 271.6484 15.08833763217191

STARLINK-4278
1 53182U 22083BC  26169.93498965  .00007342  00000+0  47828-3 0  9998
2 53182  53.1619  44.4953 0001657 104.0547 256.0629 15.08889143216988

STARLINK-4280
1 53178U 22083AY  26170.09649738 -.00000012  00000+0  17335-4 0  9997
2 53178  53.1612  68.7816 0001316  90.3297 269.7845 15.08833961216656

STARLINK-4292
1 53175U 22083AV  26170.03669556 -.00000334  00000+0 -28777-5 0  9999
2 53175  53.1612  79.0502 0001359  93.4464 266.6683 15.08835837216512

STARLINK-4294
1 53176U 22083AW  26169.97458919 -.00000040  00000+0  15604-4 0  9997
2 53176  53.1603  54.2420 0001254  86.4377 273.6758 15.08832609216858

STARLINK-4298
1 53177U 22083AX  26169.93871404 -.00000219  00000+0  43209-5 0  9993
2 53177  53.1595  44.4789 0001298  89.2136 270.9005 15.08834555216981

STARLINK-4299
1 53172U 22083AS  26170.12454732 -.00000512  00000+0 -14079-4 0  9991
2 53172  53.1609  63.5678 0001547  92.8635 267.2534 15.08830596216732

STARLINK-4300
1 53173U 22083AT  26169.94608610 -.00000870  00000+0 -36619-4 0  9997
2 53173  53.1599  44.4449 0001225  91.6058 268.5073 15.08823493216981

STARLINK-4332
1 53190U 22084B   26170.11951778  .00000751  00000+0  56000-4 0  9996
2 53190  97.3447 230.1480 0000794  88.8799 271.2520 15.05661013215310

STARLINK-4351
1 53193U 22084E   26170.11538582  .00001029  00000+0  75239-4 0  9997
2 53193  97.3430 229.0096 0001731 109.3686 250.7729 15.05653078215585

STARLINK-4369
1 53191U 22084C   26170.33335648 -.00007060  00000+0 -21240-3 0  9992
2 53191  97.5990 231.6613 0001410 102.6650  80.6026 15.34029436  5844

STARLINK-4375
1 53192U 22084D   26170.08351344 -.00000700  00000+0 -44559-4 0  9999
2 53192  97.3430 230.1051 0001733 107.3006 252.8411 15.05656139215306

STARLINK-4382
1 53194U 22084F   26170.10013234 -.00001492  00000+0 -99499-4 0  9999
2 53194  97.3479 230.0942 0001335 128.5494 231.5853 15.05641752214637

STARLINK-4385
1 53198U 22084K   26170.07385594 -.00001566  00000+0 -10461-3 0  9993
2 53198  97.3414 229.0479 0002162 126.8718 233.2708 15.05654807215221

STARLINK-4391
1 53189U 22084A   26170.10566458 -.00002203  00000+0 -14881-3 0  9996
2 53189  97.3438 230.0947 0000497 158.1837 201.9412 15.05649509215315

STARLINK-4395
1 53199U 22084L   26170.07520357 -.00002767  00000+0 -18784-3 0  9992
2 53199  97.3401 230.0999 0002284  86.8655 273.2834 15.05664137214632

STARLINK-4397
1 53205U 22084S   26170.12227695 -.00001293  00000+0 -85663-4 0  9999
2 53205  97.3417 230.1666 0001725 117.1114 243.0289 15.05665440214644

STARLINK-4403
1 53197U 22084J   26170.10984795  .00002664  00000+0  18859-3 0  9991
2 53197  97.3426 228.9923 0000513 114.2640 245.8641 15.05642539214568

STARLINK-4405
1 53201U 22084N   26170.33335648  .00012740  00000+0  35253-3 0  9992
2 53201  97.5995 232.7870 0001229  64.1864 330.5298 15.37144977  5787

STARLINK-4408
1 53206U 22084T   26170.06966390 -.00001602  00000+0 -10710-3 0  9999
2 53206  97.3413 230.0910 0001810 111.7892 248.3528 15.05662260214630

STARLINK-4409
1 53203U 22084Q   26170.12781626 -.00001314  00000+0 -87093-4 0  9999
2 53203  97.3415 230.1653 0001568  80.5754 279.5651 15.05663958214643

STARLINK-4410
1 53204U 22084R   26170.33335648  .00006758  00000+0  22019-3 0  9993
2 53204  97.5997 231.4739 0001899  78.0006  82.0028 15.32173822  5783

STARLINK-4411
1 53202U 22084P   26170.06413325  .00005676  00000+0  39721-3 0  9996
2 53202  97.3425 230.1143 0001343  72.2481 287.8893 15.05635284214633

STARLINK-4417
1 53200U 22084M   26170.09458347 -.00002266  00000+0 -15305-3 0  9996
2 53200  97.3403 230.0805 0002194  80.8085 279.3391 15.05665079215298
