OBJECT_NAME,OBJECT_ID,EPOCH,MEAN_MOTION,ECCENTRICITY,INCLINATION,RA_OF_ASC_NODE,ARG_OF_PERICENTER,MEAN_ANOMALY,EPHEMERIS_TYPE,CLASSIFICATION_TYPE,NORAD_CAT_ID,ELEMENT_SET_NO,REV_AT_EPOCH,BSTAR,MEAN_MOTION_DOT,MEAN_MOTION_DDOT
STARLINK-4095,2022-083AQ,2026-06-18T23:59:10.717440,15.08831742,.0001252,53.1606,64.1697,90.6353,269.4781,0,U,53170,999,21672,.30702857E-4,.201E-5,0
STARLINK-4052,2022-083AR,2026-06-18T21:47:19.452192,15.08835929,.0001883,53.1608,39.3846,103.5057,256.6144,0,U,53171,999,21705,.65821E-5,-.184E-5,0
STARLINK-4299,2022-083AS,2026-06-19T02:59:20.888448,15.08830596,.00015479,53.1609,63.5678,92.8635,267.2534,0,U,53172,999,21673,-.14078517E-4,-.512E-5,0
STARLINK-4300,2022-083AT,2026-06-18T22:42:21.839040,15.08823493,.0001225,53.1599,44.4449,91.6058,268.5073,0,U,53173,999,21698,-.36619E-4,-.87E-5,0
STARLINK-4205,2022-083AU,2026-06-19T08:00:01.999872,15.20663871,.00002148,53.1599,77.3542,167.4220,172.8585,0,U,53174,999,581,.24174596E-2,.53824E-3,0
STARLINK-4292,2022-083AV,2026-06-19T00:52:50.496384,15.08835837,.00013597,53.1612,79.0502,93.4464,266.6683,0,U,53175,999,21651,-.2877728E-5,-.334E-5,0
STARLINK-4294,2022-083AW,2026-06-18T23:23:24.506016,15.08832609,.0001254,53.1603,54.2420,86.4377,273.6758,0,U,53176,999,21685,.15604E-4,-.4E-6,0
STARLINK-4298,2022-083AX,2026-06-18T22:31:44.893056,15.08834555,.0001298,53.1595,44.4789,89.2136,270.9005,0,U,53177,999,21698,.43209E-5,-.219E-5,0
STARLINK-4280,2022-083AY,2026-06-19T02:18:57.373632,15.08833961,.00013168,53.1612,68.7816,90.3297,269.7845,0,U,53178,999,21665,.17335419E-4,-.12E-6,0
STARLINK-4276,2022-083AZ,2026-06-18T21:22:07.580928,15.08833763,.0001265,53.1594,29.3054,88.4653,271.6484,0,U,53179,999,21719,.16449052E-4,-.26E-6,0
STARLINK-4258,2022-083BA,2026-06-18T21:59:16.471104,15.08834083,.0001233,53.1604,29.4606,88.2605,271.8527,0,U,53180,999,21719,.47567E-5,-.212E-5,0
STARLINK-4278,2022-083BC,2026-06-18T22:26:23.105760,15.08889143,.0001657,53.1619,44.4953,104.0547,256.0629,0,U,53182,999,21698,.47828E-3,.7342E-4,0
STARLINK-4268,2022-083BD,2026-06-19T00:13:44.984352,15.08832856,.00012359,53.1610,34.0845,89.8315,270.2818,0,U,53183,999,21713,.21248942E-4,.5E-6,0
STARLINK-4257,2022-083BE,2026-06-18T21:16:49.547712,15.08833761,.00013,53.1596,29.3059,89.7060,270.4080,0,U,53184,999,21720,.13454E-4,-.74E-6,0
STARLINK-4391,2022-084A,2026-06-19T02:32:09.419712,15.05649509,.00004971,97.3438,230.0947,158.1837,201.9412,0,U,53189,999,21531,-.1488111E-3,-.2203E-4,0
STARLINK-4332,2022-084B,2026-06-19T02:52:06.336192,15.05661013,.00007947,97.3447,230.1480,88.8799,271.2520,0,U,53190,999,21531,.55999612E-4,.751E-5,0
STARLINK-4369,2022-084C,2026-06-19T08:00:01.999872,15.34029436,.00014101,97.5990,231.6613,102.6650,80.6026,0,U,53191,999,584,-.21239902E-3,-.706E-4,0
STARLINK-4375,2022-084D,2026-06-19T02:00:15.561216,15.05656139,.00017336,97.3430,230.1051,107.3006,252.8411,0,U,53192,999,21530,-.44558897E-4,-.7E-5,0
STARLINK-4351,2022-084E,2026-06-19T02:46:09.334848,15.05653078,.00017316,97.3430,229.0096,109.3686,250.7729,0,U,53193,999,21558,.75239488E-4,.1029E-4,0
STARLINK-4382,2022-084F,2026-06-19T02:24:11.434176,15.05641752,.00013353,97.3479,230.0942,128.5494,231.5853,0,U,53194,999,21463,-.99499394E-4,-.1492E-4,0
STARLINK-4403,2022-084J,2026-06-19T02:38:10.862880,15.05642539,.00005131,97.3426,228.9923,114.2640,245.8641,0,U,53197,999,21456,.1885899E-3,.2664E-4,0
STARLINK-4385,2022-084K,2026-06-19T01:46:21.153216,15.05654807,.00021623,97.3414,229.0479,126.8718,233.2708,0,U,53198,999,21522,-.10461238E-3,-.1566E-4,0
STARLINK-4395,2022-084L,2026-06-19T01:48:17.588448,15.05664137,.00022843,97.3401,230.0999,86.8655,273.2834,0,U,53199,999,21463,-.18784191E-3,-.2767E-4,0
STARLINK-4417,2022-084M,2026-06-19T02:16:12.011808,15.05665079,.00021942,97.3403,230.0805,80.8085,279.3391,0,U,53200,999,21529,-.15305095E-3,-.2266E-4,0
STARLINK-4405,2022-084N,2026-06-19T08:00:01.999872,15.37144977,.00012294,97.5995,232.7870,64.1864,330.5298,0,U,53201,999,578,.35252961E-3,.1274E-3,0
STARLINK-4411,2022-084P,2026-06-19T01:32:21.112800,15.05635284,.00013439,97.3425,230.1143,72.2481,287.8893,0,U,53202,999,21463,.3972071E-3,.5676E-4,0
STARLINK-4409,2022-084Q,2026-06-19T03:04:03.324864,15.05663958,.00015688,97.3415,230.1653,80.5754,279.5651,0,U,53203,999,21464,-.87092982E-4,-.1314E-4,0
STARLINK-4410,2022-084R,2026-06-19T08:00:01.999872,15.32173822,.00018992,97.5997,231.4739,78.0006,82.0028,0,U,53204,999,578,.22018741E-3,.6758E-4,0
STARLINK-4397,2022-084S,2026-06-19T02:56:04.728480,15.05665440,.00017253,97.3417,230.1666,117.1114,243.0289,0,U,53205,999,21464,-.85662835E-4,-.1293E-4,0
STARLINK-4408,2022-084T,2026-06-19T01:40:18.960960,15.05662260,.00018106,97.3413,230.0910,111.7892,248.3528,0,U,53206,999,21463,-.10709629E-3,-.1602E-4,0
